{
    "links": {
        "self": "http://www.neowsapp.com/rest/v1/neo/3682231?api_key=iIulBulltgU6a56xZRHN4H3l9WmuAYTsLGpBGhQ2"
    },
    "id": "3682231",
    "neo_reference_id": "3682231",
    "name": "(2014 QD3)",
    "designation": "2014 QD3",
    "nasa_jpl_url": "http://ssd.jpl.nasa.gov/sbdb.cgi?sstr=3682231",
    "absolute_magnitude_h": 25.0,
    "estimated_diameter": {
        "kilometers": {
            "estimated_diameter_min": 0.02658,
            "estimated_diameter_max": 0.0594346868
        },
        "meters": {
            "estimated_diameter_min": 26.58,
            "estimated_diameter_max": 59.4346868419
        },
        "miles": {
            "estimated_diameter_min": 0.0165160412,
            "estimated_diameter_max": 0.0369309908
        },
        "feet": {
            "estimated_diameter_min": 87.2047272,
            "estimated_diameter_max": 194.9956979785
        }
    },
    "is_potentially_hazardous_asteroid": false,
    "close_approach_data": [
        {
            "close_approach_date": "2012-12-14",
            "close_approach_date_full": "2012-Dec-14 16:47",
            "epoch_date_close_approach": 1355503620000,
            "relative_velocity": {
                "kilometers_per_second": "11.4525205251",
                "kilometers_per_hour": "41229.0738902779",
                "miles_per_hour": "25618.1431625452"
            },
            "miss_distance": {
                "astronomical": "0.1090486326",
                "lunar": "42.4199180814",
                "kilometers": "16313443.163372562",
                "miles": "10136703.5365308756"
            },
            "orbiting_body": "Earth"
        },
        {
            "close_approach_date": "2014-09-01",
            "close_approach_date_full": "2014-Sep-01 01:19",
            "epoch_date_close_approach": 1409534340000,
            "relative_velocity": {
                "kilometers_per_second": "9.1421210581",
                "kilometers_per_hour": "32911.6358092913",
                "miles_per_hour": "20450.0105949454"
            },
            "miss_distance": {
                "astronomical": "0.042826815",
                "lunar": "16.659631035",
                "kilometers": "6406800.30288405",
                "miles": "3981001.10673789"
            },
            "orbiting_body": "Earth"
        },
        {
            "close_approach_date": "2016-08-01",
            "close_approach_date_full": "2016-Aug-01 16:04",
            "epoch_date_close_approach": 1470067440000,
            "relative_velocity": {
                "kilometers_per_second": "22.1492096875",
                "kilometers_per_hour": "79737.1548748816",
                "miles_per_hour": "49545.5671498952"
            },
            "miss_distance": {
                "astronomical": "0.457073033",
                "lunar": "177.801409837",
                "kilometers": "68377152.17123971",
                "miles": "42487592.183379598"
            },
            "orbiting_body": "Earth"
        }
    ],
    "orbital_data": {
        "orbit_id": "5",
        "orbit_determination_date": "2017-04-06 08:39:17",
        "first_observation_date": "2014-08-19",
        "last_observation_date": "2014-08-23",
        "data_arc_in_days": 4,
        "observations_used": 16,
        "orbit_uncertainty": "8",
        "minimum_orbit_intersection": ".0413326",
        "jupiter_tisserand_invariant": "4.349",
        "epoch_osculation": "2456889.5",
        "eccentricity": ".4097397021272258",
        "semi_major_axis": "1.550272099662481",
        "inclination": "4.31420763986132",
        "ascending_node_longitude": "308.2209659632843",
        "orbital_period": "705.0344258275979",
        "perihelion_distance": ".9150640713306269",
        "perihelion_argument": "81.26025136108538",
        "aphelion_distance": "2.185480127994334",
        "perihelion_time": "2456942.320077819686",
        "mean_anomaly": "333.0293623708288",
        "mean_motion": ".5106133641310031",
        "equinox": "J2000",
        "orbit_class": {
            "orbit_class_type": "APO",
            "orbit_class_description": "Near-Earth asteroid orbits which cross the Earth’s orbit similar to that of 1862 Apollo",
            "orbit_class_range": "a (semi-major axis) > 1.0 AU; q (perihelion) < 1.017 AU"
        }
    },
    "is_sentry_object": false
}